NORAD_CAT_ID,OBJECT_NAME,OBJECT_TYPE,EPOCH,MEAN_MOTION,ECCENTRICITY,INCLINATION,RA_OF_ASC_NODE,ARG_OF_PERICENTER,MEAN_ANOMALY,BSTAR,MEAN_MOTION_DOT,MEAN_MOTION_DDOT,TLE_LINE0,TLE_LINE1,TLE_LINE2,SEMIMAJOR_AXIS,PERIOD,APOGEE,PERIGEE,DECAYED
51873.0,STARLINK-3582,PAYLOAD,2023-02-15 20:50:29,15.0885101,0.0001074,53.2158,347.22,61.0107,299.0993,0.00023384,3.437e-05,0.0,0 STARLINK-3582,1 51873U 22022X   23046.86839805  .00003437  00000-0  23384-3 0  9994,2 51873  53.2158 347.2200 0001074  61.0107 299.0993 15.08851010 54363,6917.847,95.437,540.455,538.969,0.0
51873.0,STARLINK-3582,PAYLOAD,2023-02-16 03:12:01,15.08875442,0.0001098,53.2165,346.0306,68.6443,291.4666,0.0011852,0.00018643,0.0,0 STARLINK-3582,1 51873U 22022X   23047.13335134  .00018643  00000-0  11852-2 0  9992,2 51873  53.2165 346.0306 0001098  68.6443 291.4666 15.08875442 54400,6917.772,95.435,540.397,538.877,0.0
51873.0,STARLINK-3582,PAYLOAD,2023-02-16 12:44:20,15.0885112,0.000117,53.2173,344.2464,88.9538,271.1588,0.00026104,3.87e-05,0.0,0 STARLINK-3582,1 51873U 22022X   23047.53079325  .00003870  00000-0  26104-3 0  9996,2 51873  53.2173 344.2464 0001170  88.9538 271.1588 15.08851120 54466,6917.846,95.437,540.521,538.902,0.0
51873.0,STARLINK-3582,PAYLOAD,2023-02-17 06:13:35,15.08838993,0.0001157,53.2153,340.9748,98.556,261.5563,9.3979e-05,1.208e-05,0.0,0 STARLINK-3582,1 51873U 22022X   23048.25944057  .00001208  00000-0  93979-4 0  9997,2 51873  53.2153 340.9748 0001157  98.5560 261.5563 15.08838993 54570,6917.883,95.438,540.549,538.948,0.0
51873.0,STARLINK-3582,PAYLOAD,2023-02-17 12:35:09,15.08807906,0.0002108,53.2155,339.7847,80.2256,279.8974,-0.00045039,-7.443e-05,0.0,0 STARLINK-3582,1 51873U 22022X   23048.52441661 -.00007443  00000-0 -45039-3 0  9992,2 51873  53.2155 339.7847 0002108  80.2256 279.8974 15.08807906 54618,6917.978,95.44,541.302,538.385,0.0
51873.0,STARLINK-3582,PAYLOAD,2023-02-18 02:53:39,15.08806756,0.0001406,53.2165,337.1097,88.1763,271.9391,0.00025044,3.697e-05,0.0,0 STARLINK-3582,1 51873U 22022X   23049.12059051  .00003697  00000-0  25044-3 0  9996,2 51873  53.2165 337.1097 0001406  88.1763 271.9391 15.08806756 54706,6917.982,95.44,540.82,538.874,0.0
51873.0,STARLINK-3582,PAYLOAD,2023-02-18 12:25:58,15.08830837,0.0001602,53.217,335.3262,85.6328,274.4848,0.0011879,0.00018663,0.0,0 STARLINK-3582,1 51873U 22022X   23049.51803397  .00018663  00000-0  11879-2 0  9998,2 51873  53.2170 335.3262 0001602  85.6328 274.4848 15.08830837 54761,6917.908,95.438,540.882,538.665,0.0
51873.0,STARLINK-3582,PAYLOAD,2023-02-18 18:47:30,15.08851942,0.0001476,53.2183,334.1363,86.0887,274.0274,0.0016939,0.00026782,0.0,0 STARLINK-3582,1 51873U 22022X   23049.78299233  .00026782  00000-0  16939-2 0  9998,2 51873  53.2183 334.1363 0001476  86.0887 274.0274 15.08851942 54802,6917.844,95.437,540.73,538.688,0.0
51873.0,STARLINK-3582,PAYLOAD,2023-02-19 01:09:02,15.08877167,0.0001387,53.2171,332.9479,85.7663,274.3488,0.0018772,0.00029745,0.0,0 STARLINK-3582,1 51873U 22022X   23050.04794512  .00029745  00000-0  18772-2 0  9998,2 51873  53.2171 332.9479 0001387  85.7663 274.3488 15.08877167 54843,6917.767,95.435,540.591,538.672,0.0
51873.0,STARLINK-3582,PAYLOAD,2023-02-19 12:16:43,15.0887175,0.0001346,53.216,330.8645,92.752,267.3626,0.00058869,9.102e-05,0.0,0 STARLINK-3582,1 51873U 22022X   23050.51161754  .00009102  00000-0  58869-3 0  9993,2 51873  53.2160 330.8645 0001346  92.7520 267.3626 15.08871750 54914,6917.783,95.436,540.579,538.717,0.0
51873.0,STARLINK-3582,PAYLOAD,2023-02-20 04:10:34,15.088689,0.0001339,53.217,327.8891,102.7748,257.3394,0.00047901,7.35e-05,0.0,0 STARLINK-3582,1 51873U 22022X   23051.17400670  .00007350  00000-0  47901-3 0  9997,2 51873  53.2170 327.8891 0001339 102.7748 257.3394 15.08868900 55016,6917.792,95.436,540.583,538.731,0.0
51873.0,STARLINK-3582,PAYLOAD,2023-02-20 23:15:11,15.08850094,0.0001052,53.2151,324.3236,92.3709,267.7403,-0.0001049,-1.957e-05,0.0,0 STARLINK-3582,1 51873U 22022X   23051.96888508 -.00001957  00000-0 -10490-3 0  9996,2 51873  53.2151 324.3236 0001052  92.3709 267.7403 15.08850094 55137,6917.85,95.437,540.442,538.987,0.0
51873.0,STARLINK-3582,PAYLOAD,2023-02-21 04:01:20,15.08855266,0.0001099,53.215,323.4301,99.0018,261.1099,-2.2022e-05,-6.38e-06,0.0,0 STARLINK-3582,1 51873U 22022X   23052.16760210 -.00000638  00000-0 -22022-4 0  9998,2 51873  53.2150 323.4301 0001099  99.0018 261.1099 15.08855266 55165,6917.834,95.437,540.459,538.938,0.0
51873.0,STARLINK-3582,PAYLOAD,2023-02-22 02:16:44,15.08853741,0.0001067,53.2163,319.2673,87.7082,272.4032,0.00012486,1.701e-05,0.0,0 STARLINK-3582,1 51873U 22022X   23053.09495737  .00001701  00000-0  12486-3 0  9992,2 51873  53.2163 319.2673 0001067  87.7082 272.4032 15.08853741 55308,6917.838,95.437,540.442,538.965,0.0
51873.0,STARLINK-3582,PAYLOAD,2023-02-22 03:52:07,15.08854689,0.000105,53.2161,318.9695,87.5636,272.5476,0.00016577,2.352e-05,0.0,0 STARLINK-3582,1 51873U 22022X   23053.16119674  .00002352  00000-0  16577-3 0  9991,2 51873  53.2161 318.9695 0001050  87.5636 272.5476 15.08854689 55317,6917.835,95.437,540.427,538.974,0.0
51873.0,STARLINK-3582,PAYLOAD,2023-02-22 18:10:36,15.08827864,0.000152,53.2158,316.2912,98.0655,262.0509,-0.00012226,-2.233e-05,0.0,0 STARLINK-3582,1 51873U 22022X   23053.75737175 -.00002233  00000-0 -12226-3 0  9995,2 51873  53.2158 316.2912 0001520  98.0655 262.0509 15.08827864 55402,6917.917,95.438,540.834,538.731,0.0
51873.0,STARLINK-3582,PAYLOAD,2023-02-23 03:42:56,15.08826536,0.0001294,53.216,314.5099,93.5962,266.5178,-7.0824e-05,-1.414e-05,0.0,0 STARLINK-3582,1 51873U 22022X   23054.15481652 -.00001414  00000-0 -70824-4 0  9995,2 51873  53.2160 314.5099 0001294  93.5962 266.5178 15.08826536 55463,6917.922,95.438,540.682,538.891,0.0
51873.0,STARLINK-3582,PAYLOAD,2023-02-23 19:36:46,15.08855233,0.0001303,53.2155,311.5362,84.0329,276.0812,0.00063565,9.847e-05,0.0,0 STARLINK-3582,1 51873U 22022X   23054.81721047  .00009847  00000-0  63565-3 0  9992,2 51873  53.2155 311.5362 0001303  84.0329 276.0812 15.08855233 55568,6917.834,95.437,540.6,538.797,0.0
51873.0,STARLINK-3582,PAYLOAD,2023-02-23 22:47:33,15.08870709,0.0001303,53.2151,310.9416,83.0456,277.0684,0.001532,0.00024198,0.0,0 STARLINK-3582,1 51873U 22022X   23054.94969012  .00024198  00000-0  15320-2 0  9993,2 51873  53.2151 310.9416 0001303  83.0456 277.0684 15.08870709 55582,6917.787,95.436,540.553,538.75,0.0
51873.0,STARLINK-3582,PAYLOAD,2023-02-24 01:58:19,15.08880959,0.0001269,53.2147,310.3474,82.2465,277.8671,0.0016259,0.00025712,0.0,0 STARLINK-3582,1 51873U 22022X   23055.08216615  .00025712  00000-0  16259-2 0  9998,2 51873  53.2147 310.3474 0001269  82.2465 277.8671 15.08880959 55602,6917.755,95.435,540.498,538.742,0.0
51873.0,STARLINK-3582,PAYLOAD,2023-02-24 17:52:10,15.08849973,0.0001431,53.2143,307.3732,80.816,279.2994,0.00085235,0.00013307,0.0,0 STARLINK-3582,1 51873U 22022X   23055.74456902  .00013307  00000-0  85235-3 0  9994,2 51873  53.2143 307.3732 0001431  80.8160 279.2994 15.08849973 55704,6917.85,95.437,540.705,538.725,0.0
51873.0,STARLINK-3582,PAYLOAD,2023-02-25 01:49:06,15.08848638,0.0001096,53.2143,305.8866,111.7123,248.3986,0.0011815,0.0001857,0.0,0 STARLINK-3582,1 51873U 22022X   23056.07576779  .00018570  00000-0  11815-2 0  9995,2 51873  53.2143 305.8866 0001096 111.7123 248.3986 15.08848638 55755,6917.854,95.437,540.477,538.961,0.0
51873.0,STARLINK-3582,PAYLOAD,2023-02-25 22:29:07,15.08840004,0.0001536,53.2143,302.0199,95.6522,264.4646,0.00096817,0.00015154,0.0,0 STARLINK-3582,1 51873U 22022X   23056.93689655  .00015154  00000-0  96817-3 0  9999,2 51873  53.2143 302.0199 0001536  95.6522 264.4646 15.08840004 55880,6917.88,95.438,540.808,538.683,0.0
51873.0,STARLINK-3582,PAYLOAD,2023-02-26 01:39:54,15.08846875,0.0001299,53.2143,301.4243,92.2157,267.8983,0.00098553,0.00015434,0.0,0 STARLINK-3582,1 51873U 22022X   23057.06937562  .00015434  00000-0  98553-3 0  9997,2 51873  53.2143 301.4243 0001299  92.2157 267.8983 15.08846875 55902,6917.859,95.437,540.623,538.826,0.0
51873.0,STARLINK-3582,PAYLOAD,2023-02-26 15:58:22,15.08853762,0.0001461,53.2149,298.7456,102.0264,258.0892,0.00081256,0.00012672,0.0,0 STARLINK-3582,1 51873U 22022X   23057.66553314  .00012672  00000-0  81256-3 0  9995,2 51873  53.2149 298.7456 0001461 102.0264 258.0892 15.08853762 55995,6917.838,95.437,540.714,538.693,0.0
51873.0,STARLINK-3582,PAYLOAD,2023-02-26 22:19:54,15.0886386,0.0001317,53.2138,297.5578,92.5833,267.531,0.00089912,0.0001406,0.0,0 STARLINK-3582,1 51873U 22022X   23057.93048881  .00014060  00000-0  89912-3 0  9993,2 51873  53.2138 297.5578 0001317  92.5833 267.5310 15.08863860 56036,6917.807,95.436,540.584,538.761,0.0
51873.0,STARLINK-3582,PAYLOAD,2023-02-27 01:30:40,15.08869898,0.0001316,53.2139,296.9632,89.7036,270.4107,0.0010014,0.00015698,0.0,0 STARLINK-3582,1 51873U 22022X   23058.06296610  .00015698  00000-0  10014-2 0  9997,2 51873  53.2139 296.9632 0001316  89.7036 270.4107 15.08869898 56059,6917.789,95.436,540.564,538.744,0.0
51873.0,STARLINK-3582,PAYLOAD,2023-02-27 22:10:40,15.08877378,0.0002092,53.2139,293.0978,82.031,278.0919,0.0010816,0.00016985,0.0,0 STARLINK-3582,1 51873U 22022X   23058.92407860  .00016985  00000-0  10816-2 0  9993,2 51873  53.2139 293.0978 0002092  82.0310 278.0919 15.08877378 56184,6917.766,95.435,541.078,538.184,0.0
51873.0,STARLINK-3582,PAYLOAD,2023-02-28 01:21:26,15.08879048,0.000158,53.2147,292.5023,77.4453,282.6715,0.0011487,0.0001806,0.0,0 STARLINK-3582,1 51873U 22022X   23059.05655599  .00018060  00000-0  11487-2 0  9993,2 51873  53.2147 292.5023 0001580  77.4453 282.6715 15.08879048 56209,6917.761,95.435,540.719,538.533,0.0
51873.0,STARLINK-3582,PAYLOAD,2023-02-28 15:39:56,15.08796589,0.0001494,53.2151,289.8264,77.2192,282.8967,-0.00045648,-7.537e-05,0.0,0 STARLINK-3582,1 51873U 22022X   23059.65273979 -.00007537  00000-0 -45648-3 0  9993,2 51873  53.2151 289.8264 0001494  77.2192 282.8967 15.08796589 56290,6918.013,95.44,540.912,538.845,0.0
